     3.02           NAVIGATION DATA     M: Mixed            RINEX VERSION / TYPE
OSPtoRINEX V2.1     RUNBY               20180222 200427 LCL PGM / RUN BY / DATE 
                                                            END OF HEADER       
R09 2016 02 06 21 15  0.0 2.612918615341E-05 9.094947017729E-13 5.085000000000E+05
     1.882099511719E+04 5.087995529175E-01 4.656612873077E-09 0.000000000000E+00
     1.685541943359E+04 2.523612976074E-01 1.862645149231E-09-2.000000000000E+00
     3.895207519531E+03-3.521431922913E+00 1.862645149231E-09 9.000000000000E+00
R09 2016 02 06 21 45  0.0 2.613198012114E-05 9.094947017729E-13 5.103000000000E+05
     1.917294335938E+04-1.465950012207E-01 4.656612873077E-09 0.000000000000E+00
     1.672987353516E+04-3.623113632202E-01 9.313225746155E-10-2.000000000000E+00
    -2.511618164062E+03-3.551343917847E+00 1.862645149231E-09 1.200000000000E+01
R10 2016 02 06 21 45  0.0 1.343339681625E-05 0.000000000000E+00 5.103000000000E+05
     1.969801660156E+04 1.634239196777E+00 4.656612873077E-09 0.000000000000E+00
     7.673054687500E+03 1.086503028870E+00 1.862645149231E-09-7.000000000000E+00
     1.420538574219E+04-2.855554580688E+00 9.313225746155E-10 2.000000000000E+00
G02 2016 02 06 21 59 44.0 5.995361134410E-04 1.136868377216E-13 0.000000000000E+00
     0.000000000000E+00-1.019062500000E+02 4.381253925383E-09-2.515502158225E+00
    -5.252659320831E-06 1.540511206258E-02 1.170486211777E-05 5.153726404190E+03
     5.975840000000E+05 1.583248376846E-07-2.000316910257E-01-1.285225152969E-07
     9.428787652452E-01 1.409375000000E+02-2.172134324330E+00-7.688177386305E-09
     2.671539851787E-10 1.000000000000E+00 1.882000000000E+03 0.000000000000E+00
     2.000000000000E+00 0.000000000000E+00-2.048909664154E-08 0.000000000000E+00
     5.957760000000E+05 4.000000000000E+00                                      
G12 2016 02 06 22 00  0.0 3.662896342576E-04 2.614797267597E-12 0.000000000000E+00
     9.100000000000E+01 1.119062500000E+02 3.993023468312E-09 2.187105624608E+00
     5.615875124931E-06 5.813155788928E-03 4.071742296219E-06 5.153788728714E+03
     5.976000000000E+05-1.601874828339E-07-2.207623638763E+00-4.097819328308E-08
     9.902867907226E-01 3.148125000000E+02 6.660910409998E-01-7.984975463422E-09
     2.621537768999E-10 1.000000000000E+00 1.882000000000E+03 0.000000000000E+00
     2.000000000000E+00 0.000000000000E+00-1.210719347000E-08 9.100000000000E+01
     5.958960000000E+05 4.000000000000E+00                                      
G25 2016 02 06 22 00  0.0-1.125079579651E-04-6.593836587854E-12 0.000000000000E+00
     4.700000000000E+01 1.095312500000E+02 4.252677141073E-09 1.601083241212E+00
     5.690380930901E-06 5.098241497763E-03 4.190951585770E-06 5.153564786911E+03
     5.976000000000E+05-1.136213541031E-07-2.257225722443E+00 1.247972249985E-07
     9.786369318364E-01 3.075312500000E+02 6.957526925266E-01-8.208199047294E-09
     2.482246252663E-10 1.000000000000E+00 1.882000000000E+03 0.000000000000E+00
     2.000000000000E+00 0.000000000000E+00 5.587935447693E-09 4.700000000000E+01
     5.957760000000E+05 4.000000000000E+00                                      
G31 2016 02 06 22 00  0.0 2.837893553078E-04-1.591615728103E-12 0.000000000000E+00
     5.200000000000E+01 7.296875000000E+01 4.025524822124E-09 2.536856664549E+00
     4.004687070847E-06 8.355036145076E-03 1.242198050022E-05 5.153696371078E+03
     5.976000000000E+05-1.117587089539E-08 3.011167466434E+00 1.862645149231E-07
     9.727633669502E-01 1.477500000000E+02-4.362700749369E-01-7.587816062996E-09
    -2.832260832175E-10 1.000000000000E+00 1.882000000000E+03 0.000000000000E+00
     2.000000000000E+00 0.000000000000E+00-1.350417733192E-08 5.200000000000E+01
     5.958060000000E+05 4.000000000000E+00                                      
